STARLINK-4392           
1 53489U 22099AA  22251.25001157 -.01217128  00000+0 -26104-1 0  9991
2 53489  97.6554  10.7247 0001978  52.2906   9.4733 15.47468209  4373
STARLINK-4387           
1 53490U 22099AB  22251.25001157 -.01216830  00000+0 -26274-1 0  9990
2 53490  97.6554  10.7260 0001859  58.8594 359.3953 15.47274805  4371
STARLINK-4450           
1 53491U 22099AC  22251.25001157 -.01217061  00000+0 -25917-1 0  9991
2 53491  97.6554  10.7230 0001904  56.6437   7.8681 15.47673525  4377
STARLINK-4451           
1 53492U 22099AD  22251.25001157 -.01217005  00000+0 -26152-1 0  9992
2 53492  97.6554  10.7243 0001892  57.0416   3.6135 15.47412934  4373
STARLINK-4361           
1 53493U 22099AE  22251.25001157 -.01216710  00000+0 -25799-1 0  9991
2 53493  97.6553  10.7213 0001751  69.2124 357.5429 15.47796611  4379
STARLINK-4340           
1 53494U 22099AF  22251.25001157 -.01216817  00000+0 -26063-1 0  9995
2 53494  97.6554  10.7236 0001812  62.8603 359.9105 15.47506698  4376
STARLINK-4429           
1 53495U 22099AG  22251.25001157 -.01217047  00000+0 -25697-1 0  9994
2 53495  97.6553  10.7206 0001835  62.0437   6.9245 15.47918141  4380
STARLINK-4465           
1 53496U 22099AH  22251.25001157 -.01216460  00000+0 -25897-1 0  9995
2 53496  97.6554  10.7218 0001716  73.1339 352.2039 15.47681686  4375
STARLINK-4453           
1 53497U 22099AJ  22250.91667824 -.01221907  00000+0 -24755-1 0  9991
2 53497  97.6556  10.3656 0002027  47.9627 326.9885 15.49106356  1300
STARLINK-4439           
1 53498U 22099AK  22251.25001157 -.01217173  00000+0 -25803-1 0  9996
2 53498  97.6553  10.7213 0001909  56.8550  10.7117 15.47802823  4379
STARLINK-4454           
1 53499U 22099AL  22250.91667824 -.01221767  00000+0 -24744-1 0  9995
2 53499  97.6556  10.3648 0001930  52.7441 323.0222 15.49116219  1305
STARLINK-4455           
1 53500U 22099AM  22251.25001157 -.01217091  00000+0 -25674-1 0  9995
2 53500  97.6553  10.7195 0001824  62.9771   6.9118 15.47945011  4387
STARLINK-4434           
1 53501U 22099AN  22250.91667824 -.01222151  00000+0 -24417-1 0  9994
2 53501  97.6555  10.3637 0001911  53.8325 325.5880 15.49503394  1309
STARLINK-4435           
1 53502U 22099AP  22250.91667824 -.01221734  00000+0 -24664-1 0  9995
2 53502  97.6556  10.3650 0001880  55.6714 321.2040 15.49207730  1309
STARLINK-4461           
1 53503U 22099AQ  22251.25001157 -.01217389  00000+0 -24948-1 0  9991
2 53503  97.6553  10.7168 0001846  62.2876  16.1691 15.48771568  4376
STARLINK-4448           
1 53504U 22099AR  22250.91667824 -.01221791  00000+0 -24510-1 0  9990
2 53504  97.6555  10.3644 0001834  58.7395 319.5289 15.49387201  1308
STARLINK-4446           
1 53505U 22099AS  22251.25001157 -.01217404  00000+0 -24710-1 0  9998
2 53505  97.6553  10.7157 0001760  71.5408  10.3342 15.49045310  4374
