let sat = [{"OBJECT_NAME":"STARLINK-4392","OBJECT_ID":"2022-099AA","EPOCH":"2022-09-08T06:00:00.999648","MEAN_MOTION":15.47468209,"ECCENTRICITY":0.0001978,"INCLINATION":97.6554,"RA_OF_ASC_NODE":10.7247,"ARG_OF_PERICENTER":52.2906,"MEAN_ANOMALY":9.4733,"EPHEMERIS_TYPE":0,"CLASSIFICATION_TYPE":"U","NORAD_CAT_ID":53489,"ELEMENT_SET_NO":999,"REV_AT_EPOCH":437,"BSTAR":-0.026104,"MEAN_MOTION_DOT":-0.01217128,"MEAN_MOTION_DDOT":0},{"OBJECT_NAME":"STARLINK-4387","OBJECT_ID":"2022-099AB","EPOCH":"2022-09-08T06:00:00.999648","MEAN_MOTION":15.47274805,"ECCENTRICITY":0.0001859,"INCLINATION":97.6554,"RA_OF_ASC_NODE":10.726,"ARG_OF_PERICENTER":58.8594,"MEAN_ANOMALY":359.3953,"EPHEMERIS_TYPE":0,"CLASSIFICATION_TYPE":"U","NORAD_CAT_ID":53490,"ELEMENT_SET_NO":999,"REV_AT_EPOCH":437,"BSTAR":-0.026274,"MEAN_MOTION_DOT":-0.0121683,"MEAN_MOTION_DDOT":0},{"OBJECT_NAME":"STARLINK-4450","OBJECT_ID":"2022-099AC","EPOCH":"2022-09-08T06:00:00.999648","MEAN_MOTION":15.47673525,"ECCENTRICITY":0.0001904,"INCLINATION":97.6554,"RA_OF_ASC_NODE":10.723,"ARG_OF_PERICENTER":56.6437,"MEAN_ANOMALY":7.8681,"EPHEMERIS_TYPE":0,"CLASSIFICATION_TYPE":"U","NORAD_CAT_ID":53491,"ELEMENT_SET_NO":999,"REV_AT_EPOCH":437,"BSTAR":-0.025917,"MEAN_MOTION_DOT":-0.01217061,"MEAN_MOTION_DDOT":0},{"OBJECT_NAME":"STARLINK-4451","OBJECT_ID":"2022-099AD","EPOCH":"2022-09-08T06:00:00.999648","MEAN_MOTION":15.47412934,"ECCENTRICITY":0.0001892,"INCLINATION":97.6554,"RA_OF_ASC_NODE":10.7243,"ARG_OF_PERICENTER":57.0416,"MEAN_ANOMALY":3.6135,"EPHEMERIS_TYPE":0,"CLASSIFICATION_TYPE":"U","NORAD_CAT_ID":53492,"ELEMENT_SET_NO":999,"REV_AT_EPOCH":437,"BSTAR":-0.026152,"MEAN_MOTION_DOT":-0.01217005,"MEAN_MOTION_DDOT":0},{"OBJECT_NAME":"STARLINK-4361","OBJECT_ID":"2022-099AE","EPOCH":"2022-09-08T06:00:00.999648","MEAN_MOTION":15.47796611,"ECCENTRICITY":0.0001751,"INCLINATION":97.6553,"RA_OF_ASC_NODE":10.7213,"ARG_OF_PERICENTER":69.2124,"MEAN_ANOMALY":357.5429,"EPHEMERIS_TYPE":0,"CLASSIFICATION_TYPE":"U","NORAD_CAT_ID":53493,"ELEMENT_SET_NO":999,"REV_AT_EPOCH":437,"BSTAR":-0.025799,"MEAN_MOTION_DOT":-0.0121671,"MEAN_MOTION_DDOT":0},{"OBJECT_NAME":"STARLINK-4340","OBJECT_ID":"2022-099AF","EPOCH":"2022-09-08T06:00:00.999648","MEAN_MOTION":15.47506698,"ECCENTRICITY":0.0001812,"INCLINATION":97.6554,"RA_OF_ASC_NODE":10.7236,"ARG_OF_PERICENTER":62.8603,"MEAN_ANOMALY":359.9105,"EPHEMERIS_TYPE":0,"CLASSIFICATION_TYPE":"U","NORAD_CAT_ID":53494,"ELEMENT_SET_NO":999,"REV_AT_EPOCH":437,"BSTAR":-0.026063,"MEAN_MOTION_DOT":-0.01216817,"MEAN_MOTION_DDOT":0},{"OBJECT_NAME":"STARLINK-4429","OBJECT_ID":"2022-099AG","EPOCH":"2022-09-08T06:00:00.999648","MEAN_MOTION":15.47918141,"ECCENTRICITY":0.0001835,"INCLINATION":97.6553,"RA_OF_ASC_NODE":10.7206,"ARG_OF_PERICENTER":62.0437,"MEAN_ANOMALY":6.9245,"EPHEMERIS_TYPE":0,"CLASSIFICATION_TYPE":"U","NORAD_CAT_ID":53495,"ELEMENT_SET_NO":999,"REV_AT_EPOCH":438,"BSTAR":-0.025697,"MEAN_MOTION_DOT":-0.01217047,"MEAN_MOTION_DDOT":0},{"OBJECT_NAME":"STARLINK-4465","OBJECT_ID":"2022-099AH","EPOCH":"2022-09-08T06:00:00.999648","MEAN_MOTION":15.47681686,"ECCENTRICITY":0.0001716,"INCLINATION":97.6554,"RA_OF_ASC_NODE":10.7218,"ARG_OF_PERICENTER":73.1339,"MEAN_ANOMALY":352.2039,"EPHEMERIS_TYPE":0,"CLASSIFICATION_TYPE":"U","NORAD_CAT_ID":53496,"ELEMENT_SET_NO":999,"REV_AT_EPOCH":437,"BSTAR":-0.025897,"MEAN_MOTION_DOT":-0.0121646,"MEAN_MOTION_DDOT":0},{"OBJECT_NAME":"STARLINK-4453","OBJECT_ID":"2022-099AJ","EPOCH":"2022-09-07T22:00:00.999936","MEAN_MOTION":15.49106356,"ECCENTRICITY":0.0002027,"INCLINATION":97.6556,"RA_OF_ASC_NODE":10.3656,"ARG_OF_PERICENTER":47.9627,"MEAN_ANOMALY":326.9885,"EPHEMERIS_TYPE":0,"CLASSIFICATION_TYPE":"U","NORAD_CAT_ID":53497,"ELEMENT_SET_NO":999,"REV_AT_EPOCH":130,"BSTAR":-0.024755,"MEAN_MOTION_DOT":-0.01221907,"MEAN_MOTION_DDOT":0},{"OBJECT_NAME":"STARLINK-4439","OBJECT_ID":"2022-099AK","EPOCH":"2022-09-08T06:00:00.999648","MEAN_MOTION":15.47802823,"ECCENTRICITY":0.0001909,"INCLINATION":97.6553,"RA_OF_ASC_NODE":10.7213,"ARG_OF_PERICENTER":56.855,"MEAN_ANOMALY":10.7117,"EPHEMERIS_TYPE":0,"CLASSIFICATION_TYPE":"U","NORAD_CAT_ID":53498,"ELEMENT_SET_NO":999,"REV_AT_EPOCH":437,"BSTAR":-0.025803,"MEAN_MOTION_DOT":-0.01217173,"MEAN_MOTION_DDOT":0},{"OBJECT_NAME":"STARLINK-4454","OBJECT_ID":"2022-099AL","EPOCH":"2022-09-07T22:00:00.999936","MEAN_MOTION":15.49116219,"ECCENTRICITY":0.000193,"INCLINATION":97.6556,"RA_OF_ASC_NODE":10.3648,"ARG_OF_PERICENTER":52.7441,"MEAN_ANOMALY":323.0222,"EPHEMERIS_TYPE":0,"CLASSIFICATION_TYPE":"U","NORAD_CAT_ID":53499,"ELEMENT_SET_NO":999,"REV_AT_EPOCH":130,"BSTAR":-0.024744,"MEAN_MOTION_DOT":-0.01221767,"MEAN_MOTION_DDOT":0},{"OBJECT_NAME":"STARLINK-4455","OBJECT_ID":"2022-099AM","EPOCH":"2022-09-08T06:00:00.999648","MEAN_MOTION":15.47945011,"ECCENTRICITY":0.0001824,"INCLINATION":97.6553,"RA_OF_ASC_NODE":10.7195,"ARG_OF_PERICENTER":62.9771,"MEAN_ANOMALY":6.9118,"EPHEMERIS_TYPE":0,"CLASSIFICATION_TYPE":"U","NORAD_CAT_ID":53500,"ELEMENT_SET_NO":999,"REV_AT_EPOCH":438,"BSTAR":-0.025674,"MEAN_MOTION_DOT":-0.01217091,"MEAN_MOTION_DDOT":0},{"OBJECT_NAME":"STARLINK-4434","OBJECT_ID":"2022-099AN","EPOCH":"2022-09-07T22:00:00.999936","MEAN_MOTION":15.49503394,"ECCENTRICITY":0.0001911,"INCLINATION":97.6555,"RA_OF_ASC_NODE":10.3637,"ARG_OF_PERICENTER":53.8325,"MEAN_ANOMALY":325.588,"EPHEMERIS_TYPE":0,"CLASSIFICATION_TYPE":"U","NORAD_CAT_ID":53501,"ELEMENT_SET_NO":999,"REV_AT_EPOCH":130,"BSTAR":-0.024417,"MEAN_MOTION_DOT":-0.01222151,"MEAN_MOTION_DDOT":0},{"OBJECT_NAME":"STARLINK-4435","OBJECT_ID":"2022-099AP","EPOCH":"2022-09-07T22:00:00.999936","MEAN_MOTION":15.4920773,"ECCENTRICITY":0.000188,"INCLINATION":97.6556,"RA_OF_ASC_NODE":10.365,"ARG_OF_PERICENTER":55.6714,"MEAN_ANOMALY":321.204,"EPHEMERIS_TYPE":0,"CLASSIFICATION_TYPE":"U","NORAD_CAT_ID":53502,"ELEMENT_SET_NO":999,"REV_AT_EPOCH":130,"BSTAR":-0.024664,"MEAN_MOTION_DOT":-0.01221734,"MEAN_MOTION_DDOT":0},{"OBJECT_NAME":"STARLINK-4461","OBJECT_ID":"2022-099AQ","EPOCH":"2022-09-08T06:00:00.999648","MEAN_MOTION":15.48771568,"ECCENTRICITY":0.0001846,"INCLINATION":97.6553,"RA_OF_ASC_NODE":10.7168,"ARG_OF_PERICENTER":62.2876,"MEAN_ANOMALY":16.1691,"EPHEMERIS_TYPE":0,"CLASSIFICATION_TYPE":"U","NORAD_CAT_ID":53503,"ELEMENT_SET_NO":999,"REV_AT_EPOCH":437,"BSTAR":-0.024948,"MEAN_MOTION_DOT":-0.01217389,"MEAN_MOTION_DDOT":0},{"OBJECT_NAME":"STARLINK-4448","OBJECT_ID":"2022-099AR","EPOCH":"2022-09-07T22:00:00.999936","MEAN_MOTION":15.49387201,"ECCENTRICITY":0.0001834,"INCLINATION":97.6555,"RA_OF_ASC_NODE":10.3644,"ARG_OF_PERICENTER":58.7395,"MEAN_ANOMALY":319.5289,"EPHEMERIS_TYPE":0,"CLASSIFICATION_TYPE":"U","NORAD_CAT_ID":53504,"ELEMENT_SET_NO":999,"REV_AT_EPOCH":130,"BSTAR":-0.02451,"MEAN_MOTION_DOT":-0.01221791,"MEAN_MOTION_DDOT":0},{"OBJECT_NAME":"STARLINK-4446","OBJECT_ID":"2022-099AS","EPOCH":"2022-09-08T06:00:00.999648","MEAN_MOTION":15.4904531,"ECCENTRICITY":0.000176,"INCLINATION":97.6553,"RA_OF_ASC_NODE":10.7157,"ARG_OF_PERICENTER":71.5408,"MEAN_ANOMALY":10.3342,"EPHEMERIS_TYPE":0,"CLASSIFICATION_TYPE":"U","NORAD_CAT_ID":53505,"ELEMENT_SET_NO":999,"REV_AT_EPOCH":437,"BSTAR":-0.02471,"MEAN_MOTION_DOT":-0.01217404,"MEAN_MOTION_DDOT":0}]